*******************************************************************************
Ephemeris / WWW_USER Fri Mar  7 11:00:00 2025 Pasadena, USA      / Horizons    
*******************************************************************************
Target body name: (2018 TZ5)                      {source: JPL#13}
Center body name: Earth (399)                     {source: DE441}
Center-site name: Mauna Kea
*******************************************************************************
Start time      : A.D. 2018-Sep-03 04:45:00.0000 UT      
Stop  time      : A.D. 2018-Sep-03 15:57:00.0000 UT      
Step-size       : 1 minutes
*******************************************************************************
Target pole/equ : undefined
Target radii    : undefined                                                    
Center geodetic : 204.5278, 19.8260847, 4.21024   {E-lon(deg),Lat(deg),Alt(km)}
Center cylindric: 204.5278, 6006.35451, 2151.0229 {E-lon(deg),Dxy(km),Dz(km)}
Center pole/equ : ITRF93                          {East-longitude positive}
Center radii    : 6378.137, 6378.137, 6356.752 km {Equator_a, b, pole_c}       
Target primary  : Sun
Vis. interferer : MOON (R_eq= 1737.400) km        {source: DE441}
Rel. light bend : Sun                             {source: DE441}
Rel. lght bnd GM: 1.3271E+11 km^3/s^2                                          
Small-body perts: Yes                             {source: SB441-N16}
Atmos refraction: NO (AIRLESS)
RA format       : HMS
Time format     : CAL 
Calendar mode   : Mixed Julian/Gregorian
RTS-only print  : NO       
EOP file        : eop.250306.p250602                                           
EOP coverage    : DATA-BASED 1962-JAN-20 TO 2025-MAR-06. PREDICTS-> 2025-JUN-01
Units conversion: 1 au= 149597870.700 km, c= 299792.458 km/s, 1 day= 86400.0 s 
Table cut-offs 1: Elevation (-90.0deg=NO ),Airmass (>38.000=NO), Daylight (YES)
Table cut-offs 2: Solar elongation (  0.0,180.0=NO ),Local Hour Angle( 0.0=NO )
Table cut-offs 3: RA/DEC angular rate (     0.0=NO )                           
*******************************************************************************
Initial IAU76/J2000 heliocentric ecliptic osculating elements (au, days, deg.):
  EPOCH=  2458421.5 ! 2018-Oct-30.00 (TDB)         Residual RMS= .3052         
   EC= .5505022016549632   QR= .8932716909804733   TP= 2458367.6074299323      
   OM= 132.9772150011661   W=  197.0626448515302   IN= 1.165364587967566       
  Equivalent ICRF heliocentric cartesian coordinates (au, au/d):
   X= 9.139681807821705E-01  Y= 6.232256283970929E-01  Z= 2.452583568287751E-01
  VX=-4.619682259947144E-03 VY= 1.729028462648113E-02 VZ= 7.287606215643615E-03
Asteroid physical parameters (km, seconds, rotational period in hours):        
   GM= n.a.                RAD= n.a.               ROTPER= n.a.                
   H= 24.4                 G= .150                 B-V= n.a.                   
                           ALBEDO= n.a.            STYP= n.a.                  
*******************************************************************************
 Date__(UT)__HR:MN     R.A._________(ICRF)_________DEC
******************************************************
$$SOE
 2018-Sep-03 08:51     14 20 59.649829 -14 55 07.31193
 2018-Sep-03 08:52     14 20 59.709464 -14 55 07.87874
 2018-Sep-03 08:53     14 20 59.769138 -14 55 08.44560
 2018-Sep-03 08:54     14 20 59.828851 -14 55 09.01251
 2018-Sep-03 08:55     14 20 59.888604 -14 55 09.57946
 2018-Sep-03 08:56     14 20 59.948396 -14 55 10.14646
 2018-Sep-03 08:57     14 21 00.008228 -14 55 10.71351
 2018-Sep-03 08:58     14 21 00.068098 -14 55 11.28060
 2018-Sep-03 08:59     14 21 00.128008 -14 55 11.84775
 2018-Sep-03 09:00     14 21 00.187957 -14 55 12.41495
 2018-Sep-03 09:01     14 21 00.247945 -14 55 12.98219
 2018-Sep-03 09:02     14 21 00.307972 -14 55 13.54949
 2018-Sep-03 09:03     14 21 00.368038 -14 55 14.11684
 2018-Sep-03 09:04     14 21 00.428143 -14 55 14.68424
 2018-Sep-03 09:05     14 21 00.488287 -14 55 15.25169
 2018-Sep-03 09:06     14 21 00.548470 -14 55 15.81920
 2018-Sep-03 09:07     14 21 00.608692 -14 55 16.38676
 2018-Sep-03 09:08     14 21 00.668952 -14 55 16.95438
 2018-Sep-03 09:09     14 21 00.729251 -14 55 17.52205
 2018-Sep-03 09:10     14 21 00.789589 -14 55 18.08978
 2018-Sep-03 09:11     14 21 00.849965 -14 55 18.65757
 2018-Sep-03 09:12     14 21 00.910380 -14 55 19.22541
 2018-Sep-03 09:13     14 21 00.970833 -14 55 19.79331
 2018-Sep-03 09:14     14 21 01.031325 -14 55 20.36127
 2018-Sep-03 09:15     14 21 01.091855 -14 55 20.92929
 2018-Sep-03 09:16     14 21 01.152423 -14 55 21.49737
 2018-Sep-03 09:17     14 21 01.213030 -14 55 22.06552
 2018-Sep-03 09:18     14 21 01.273674 -14 55 22.63372
 2018-Sep-03 09:19     14 21 01.334357 -14 55 23.20198
 2018-Sep-03 09:20     14 21 01.395078 -14 55 23.77031
 2018-Sep-03 09:21     14 21 01.455837 -14 55 24.33870
 2018-Sep-03 09:22     14 21 01.516633 -14 55 24.90715
 2018-Sep-03 09:23     14 21 01.577468 -14 55 25.47567
 2018-Sep-03 09:24     14 21 01.638340 -14 55 26.04426
 2018-Sep-03 09:25     14 21 01.699250 -14 55 26.61291
 2018-Sep-03 09:26     14 21 01.760198 -14 55 27.18162
 2018-Sep-03 09:27     14 21 01.821183 -14 55 27.75041
 2018-Sep-03 09:28     14 21 01.882206 -14 55 28.31926
 2018-Sep-03 09:29     14 21 01.943266 -14 55 28.88818
 2018-Sep-03 09:30     14 21 02.004364 -14 55 29.45716
 2018-Sep-03 09:31     14 21 02.065499 -14 55 30.02622
 2018-Sep-03 09:32     14 21 02.126671 -14 55 30.59535
 2018-Sep-03 09:33     14 21 02.187880 -14 55 31.16455
 2018-Sep-03 09:34     14 21 02.249126 -14 55 31.73382
 2018-Sep-03 09:35     14 21 02.310410 -14 55 32.30316
 2018-Sep-03 09:36     14 21 02.371730 -14 55 32.87257
 2018-Sep-03 09:37     14 21 02.433087 -14 55 33.44206
 2018-Sep-03 09:38     14 21 02.494481 -14 55 34.01162
 2018-Sep-03 09:39     14 21 02.555912 -14 55 34.58126
 2018-Sep-03 09:40     14 21 02.617379 -14 55 35.15097
 2018-Sep-03 09:41     14 21 02.678883 -14 55 35.72076
 2018-Sep-03 09:42     14 21 02.740423 -14 55 36.29062
 2018-Sep-03 09:43     14 21 02.802000 -14 55 36.86056
 2018-Sep-03 09:44     14 21 02.863613 -14 55 37.43058
 2018-Sep-03 09:45     14 21 02.925263 -14 55 38.00068
 2018-Sep-03 09:46     14 21 02.986948 -14 55 38.57085
 2018-Sep-03 09:47     14 21 03.048670 -14 55 39.14110
 2018-Sep-03 09:48     14 21 03.110427 -14 55 39.71144
 2018-Sep-03 09:49     14 21 03.172221 -14 55 40.28185
 2018-Sep-03 09:50     14 21 03.234050 -14 55 40.85235
 2018-Sep-03 09:51  m  14 21 03.295915 -14 55 41.42292
 2018-Sep-03 09:52  m  14 21 03.357816 -14 55 41.99358
 2018-Sep-03 09:53  m  14 21 03.419752 -14 55 42.56433
 2018-Sep-03 09:54  m  14 21 03.481724 -14 55 43.13515
 2018-Sep-03 09:55  m  14 21 03.543731 -14 55 43.70606
 2018-Sep-03 09:56  m  14 21 03.605773 -14 55 44.27706
 2018-Sep-03 09:57  m  14 21 03.667851 -14 55 44.84813
 2018-Sep-03 09:58  m  14 21 03.729964 -14 55 45.41930
 2018-Sep-03 09:59  m  14 21 03.792111 -14 55 45.99055
 2018-Sep-03 10:00  m  14 21 03.854294 -14 55 46.56189
 2018-Sep-03 10:01  m  14 21 03.916512 -14 55 47.13332
 2018-Sep-03 10:02  m  14 21 03.978764 -14 55 47.70483
 2018-Sep-03 10:03  m  14 21 04.041051 -14 55 48.27644
 2018-Sep-03 10:04  m  14 21 04.103373 -14 55 48.84813
 2018-Sep-03 10:05  m  14 21 04.165729 -14 55 49.41991
 2018-Sep-03 10:06  m  14 21 04.228120 -14 55 49.99178
 2018-Sep-03 10:07  m  14 21 04.290544 -14 55 50.56375
 2018-Sep-03 10:08  m  14 21 04.353003 -14 55 51.13580
 2018-Sep-03 10:09  m  14 21 04.415497 -14 55 51.70795
 2018-Sep-03 10:10  m  14 21 04.478024 -14 55 52.28019
 2018-Sep-03 10:11  m  14 21 04.540585 -14 55 52.85253
 2018-Sep-03 10:12  m  14 21 04.603180 -14 55 53.42495
 2018-Sep-03 10:13  m  14 21 04.665808 -14 55 53.99748
 2018-Sep-03 10:14  m  14 21 04.728470 -14 55 54.57009
 2018-Sep-03 10:15  m  14 21 04.791166 -14 55 55.14281
 2018-Sep-03 10:16  m  14 21 04.853895 -14 55 55.71561
 2018-Sep-03 10:17  m  14 21 04.916657 -14 55 56.28852
 2018-Sep-03 10:18  m  14 21 04.979453 -14 55 56.86152
 2018-Sep-03 10:19  m  14 21 05.042281 -14 55 57.43462
 2018-Sep-03 10:20  m  14 21 05.105143 -14 55 58.00782
 2018-Sep-03 10:21  m  14 21 05.168037 -14 55 58.58112
 2018-Sep-03 10:22  m  14 21 05.230965 -14 55 59.15452
 2018-Sep-03 10:23  m  14 21 05.293925 -14 55 59.72801
 2018-Sep-03 10:24  m  14 21 05.356917 -14 56 00.30161
 2018-Sep-03 10:25  m  14 21 05.419942 -14 56 00.87531
 2018-Sep-03 10:26  m  14 21 05.483000 -14 56 01.44911
 2018-Sep-03 10:27  m  14 21 05.546089 -14 56 02.02301
 2018-Sep-03 10:28  m  14 21 05.609211 -14 56 02.59702
 2018-Sep-03 10:29  m  14 21 05.672365 -14 56 03.17113
 2018-Sep-03 10:30  m  14 21 05.735550 -14 56 03.74534
 2018-Sep-03 10:31  m  14 21 05.798768 -14 56 04.31966
 2018-Sep-03 10:32  m  14 21 05.862017 -14 56 04.89408
 2018-Sep-03 10:33  m  14 21 05.925298 -14 56 05.46861
 2018-Sep-03 10:34  m  14 21 05.988610 -14 56 06.04324
 2018-Sep-03 10:35  m  14 21 06.051953 -14 56 06.61798
 2018-Sep-03 10:36  m  14 21 06.115328 -14 56 07.19282
 2018-Sep-03 10:37  m  14 21 06.178734 -14 56 07.76778
 2018-Sep-03 10:38  m  14 21 06.242171 -14 56 08.34284
 2018-Sep-03 10:39  m  14 21 06.305639 -14 56 08.91801
 2018-Sep-03 10:40  m  14 21 06.369137 -14 56 09.49329
 2018-Sep-03 10:41  m  14 21 06.432667 -14 56 10.06867
 2018-Sep-03 10:42  m  14 21 06.496226 -14 56 10.64417
 2018-Sep-03 10:43  m  14 21 06.559817 -14 56 11.21978
 2018-Sep-03 10:44  m  14 21 06.623437 -14 56 11.79550
 2018-Sep-03 10:45  m  14 21 06.687088 -14 56 12.37133
 2018-Sep-03 10:46  m  14 21 06.750769 -14 56 12.94728
 2018-Sep-03 10:47  m  14 21 06.814479 -14 56 13.52333
 2018-Sep-03 10:48  m  14 21 06.878220 -14 56 14.09950
 2018-Sep-03 10:49  m  14 21 06.941990 -14 56 14.67578
 2018-Sep-03 10:50  m  14 21 07.005790 -14 56 15.25218
 2018-Sep-03 10:51  m  14 21 07.069619 -14 56 15.82869
 2018-Sep-03 10:52  m  14 21 07.133478 -14 56 16.40532
 2018-Sep-03 10:53  m  14 21 07.197366 -14 56 16.98206
